STARLINK-30413
1 57814U 23138G   26061.16668981  .00788790  00000+0  40256-1 0  9998
2 57814  42.9995 276.5210 0001719 287.0379 284.8971 15.13673018  5720
